{
    "links": {
        "self": "http://www.neowsapp.com/rest/v1/neo/3826840?api_key=iIulBulltgU6a56xZRHN4H3l9WmuAYTsLGpBGhQ2"
    },
    "id": "3826840",
    "neo_reference_id": "3826840",
    "name": "(2018 PT23)",
    "designation": "2018 PT23",
    "nasa_jpl_url": "http://ssd.jpl.nasa.gov/sbdb.cgi?sstr=3826840",
    "absolute_magnitude_h": 24.5,
    "estimated_diameter": {
        "kilometers": {
            "estimated_diameter_min": 0.0334622374,
            "estimated_diameter_max": 0.0748238376
        },
        "meters": {
            "estimated_diameter_min": 33.4622374455,
            "estimated_diameter_max": 74.8238376074
        },
        "miles": {
            "estimated_diameter_min": 0.0207924639,
            "estimated_diameter_max": 0.0464933628
        },
        "feet": {
            "estimated_diameter_min": 109.7842471007,
            "estimated_diameter_max": 245.4850393757
        }
    },
    "is_potentially_hazardous_asteroid": false,
    "close_approach_data": [
        {
            "close_approach_date": "2018-07-06",
            "close_approach_date_full": "2018-Jul-06 13:17",
            "epoch_date_close_approach": 1530883020000,
            "relative_velocity": {
                "kilometers_per_second": "15.6192072015",
                "kilometers_per_hour": "56229.1459255429",
                "miles_per_hour": "34938.6045891242"
            },
            "miss_distance": {
                "astronomical": "0.0625042125",
                "lunar": "24.3141386625",
                "kilometers": "9350497.056027375",
                "miles": "5810129.451332775"
            },
            "orbiting_body": "Mars"
        },
        {
            "close_approach_date": "2018-08-16",
            "close_approach_date_full": "2018-Aug-16 21:07",
            "epoch_date_close_approach": 1534453620000,
            "relative_velocity": {
                "kilometers_per_second": "15.8413865584",
                "kilometers_per_hour": "57028.9916103278",
                "miles_per_hour": "35435.5975925395"
            },
            "miss_distance": {
                "astronomical": "0.014321796",
                "lunar": "5.571178644",
                "kilometers": "2142510.17617452",
                "miles": "1331294.090547576"
            },
            "orbiting_body": "Earth"
        },
        {
            "close_approach_date": "2051-07-04",
            "close_approach_date_full": "2051-Jul-04 15:20",
            "epoch_date_close_approach": 2572096800000,
            "relative_velocity": {
                "kilometers_per_second": "16.4655352154",
                "kilometers_per_hour": "59275.9267752982",
                "miles_per_hour": "36831.7557232401"
            },
            "miss_distance": {
                "astronomical": "0.0942402725",
                "lunar": "36.6594660025",
                "kilometers": "14098144.034219575",
                "miles": "8760180.487897135"
            },
            "orbiting_body": "Mars"
        }
    ],
    "orbital_data": {
        "orbit_id": "3",
        "orbit_determination_date": "2018-08-20 08:17:10",
        "first_observation_date": "2018-08-15",
        "last_observation_date": "2018-08-16",
        "data_arc_in_days": 1,
        "observations_used": 20,
        "orbit_uncertainty": "8",
        "minimum_orbit_intersection": ".0133899",
        "jupiter_tisserand_invariant": "3.213",
        "epoch_osculation": "2458346.5",
        "eccentricity": ".6677704705110256",
        "semi_major_axis": "2.352067664549326",
        "inclination": ".8804980485160303",
        "ascending_node_longitude": "206.1211919906405",
        "orbital_period": "1317.568320036235",
        "perihelion_distance": ".7814263335194535",
        "perihelion_argument": "181.7402552878515",
        "aphelion_distance": "3.922708995579198",
        "perihelion_time": "2458389.319955659256",
        "mean_anomaly": "348.3002772585575",
        "mean_motion": ".2732306131875571",
        "equinox": "J2000",
        "orbit_class": {
            "orbit_class_type": "APO",
            "orbit_class_description": "Near-Earth asteroid orbits which cross the Earth’s orbit similar to that of 1862 Apollo",
            "orbit_class_range": "a (semi-major axis) > 1.0 AU; q (perihelion) < 1.017 AU"
        }
    },
    "is_sentry_object": false
}